STARLINK-36339          
1 67340U 26003G   26187.23334038  .00035345  00000+0  12890-2 0  9992
2 67340  43.0035 277.5973 0001905 277.1840  82.8795 15.27547640 26953
STARLINK-36453          
1 67341U 26003H   26187.42564138  .00017479  00000+0  64355-3 0  9992
2 67341  43.0007 276.4589 0001388 270.7601  89.3092 15.27562027 26984
STARLINK-36432          
1 67342U 26003J   26186.94607377  .00064341  00000+0  23278-2 0  9990
2 67342  42.9994 278.8747 0000857 344.1416  15.9409 15.27573615 26915
STARLINK-36458          
1 67343U 26003K   26187.22305832  .00028290  00000+0  10352-2 0  9996
2 67343  43.0013 277.5145 0001737 253.7518 106.3142 15.27529977 26959
STARLINK-36422          
1 67344U 26003L   26186.94994265  .00032190  00000+0  11763-2 0  9990
2 67344  43.0003 278.9040 0000959 278.1286  81.9457 15.27521283 26911
STARLINK-35676          
1 67345U 26003M   26187.28459151  .00030523  00000+0  11153-2 0  9990
2 67345  43.0021 277.1172 0001247 273.8143  86.2566 15.27546431 26960
STARLINK-36472          
1 67346U 26003N   26187.31800431  .00047886  00000+0  17394-2 0  9999
2 67346  43.0016 277.3764 0001335 263.6417  96.4282 15.27560979 26953
STARLINK-36420          
1 67347U 26003P   26187.30772167  .00034980  00000+0  12759-2 0  9994
2 67347  43.0034 277.2986 0001591 284.3207  75.7468 15.27546702 26965
STARLINK-36467          
1 67348U 26003Q   26187.31156160  .00034293  00000+0  12501-2 0  9997
2 67348  43.0050 277.3284 0002059 277.7394  82.3224 15.27574305 26963
STARLINK-36457          
1 67349U 26003R   26187.29613072  .00034710  00000+0  12635-2 0  9997
2 67349  43.0029 277.2072 0001239 266.8451  93.2259 15.27618252 26965
STARLINK-36475          
1 67350U 26003S   26187.54356823  .00016307  00000+0  60118-3 0  9997
2 67350  43.0001 275.6207 0001462 266.2710  93.7975 15.27559080 27008
STARLINK-36478          
1 67351U 26003T   26187.27430943  .00024809  00000+0  90917-3 0  9990
2 67351  42.9999 277.0361 0002025 280.2551  79.8073 15.27537799 26966
STARLINK-36479          
1 67352U 26003U   26186.94095045  .00019442  00000+0  71463-3 0  9996
2 67352  42.9974 278.8341 0002028 290.5268  69.5365 15.27557761 26915
STARLINK-36474          
1 67353U 26003V   26187.26417880  .00022267  00000+0  81721-3 0  9995
2 67353  42.9991 277.8306 0001227 270.4244  89.6467 15.27540539 26951
STARLINK-36448          
1 67354U 26003W   26187.30386524  .00035090  00000+0  12797-2 0  9995
2 67354  43.0032 277.2640 0001549 277.4301  82.6375 15.27550973 26968
STARLINK-36477          
1 67355U 26003X   26187.71803286  .00017259  00000+0  63553-3 0  9994
2 67355  43.0013 275.2189 0002641 298.5635  61.4951 15.27562400 27023
STARLINK-36429          
1 67356U 26003Y   26187.32185925  .00043002  00000+0  15642-2 0  9995
2 67356  43.0022 277.4065 0001285 272.0855  87.9850 15.27557676 26967
STARLINK-36456          
1 67357U 26003Z   26187.69232988  .00033720  00000+0  12292-2 0  9992
2 67357  42.9990 275.0168 0000756 286.6392  73.4376 15.27583806 27022
STARLINK-36466          
1 67358U 26003AA  26187.27816198  .00030438  00000+0  11124-2 0  9994
2 67358  42.9999 277.0631 0002272 265.4754  94.5838 15.27540305 26967
STARLINK-36499          
1 67359U 26003AB  26187.26546278  .00026464  00000+0  96878-3 0  9997
2 67359  43.0000 277.8418 0003157 136.0430 224.0673 15.27542731 26952
STARLINK-36469          
1 67360U 26003AC  26187.26158980  .00025283  00000+0  92549-3 0  9997
2 67360  43.0000 277.8108 0001353 266.7337  93.3360 15.27567585 26957
STARLINK-35306          
1 67361U 26003AD  26187.29358609  .00038158  00000+0  13902-2 0  9991
2 67361  43.0014 277.1824 0000970 245.1345 114.9405 15.27551538 26967
STARLINK-36428          
1 67362U 26003AE  26187.29101431  .00029956  00000+0  10947-2 0  9993
2 67362  43.0015 277.1619 0001827 270.6979  89.3663 15.27549869 26964
LEMUR-2 FIKRETDENGIZ    
1 67363U 26004A   26186.95817127  .00004876  00000+0  53037-3 0  9995
2 67363  97.8024 185.2292 0010567  81.5698 278.6716 14.88472307 26078
TWILIGHT-1 OBJECT B     
1 67364U 26004B   26187.73071660  .00001910  00000+0  21511-3 0  9995
2 67364  97.8067 185.9957 0010157  70.0556 290.1754 14.87773913 26192
LEMUR-2-MARIO-SOUSA     
1 67365U 26004C   26187.47704209  .00004355  00000+0  47199-3 0  9995
2 67365  97.7998 185.7354 0010218  81.3584 278.8791 14.88679800 26160
LEMUR-2 CALLUM-K-J      
1 67366U 26004D   26187.56211120  .00003673  00000+0  40153-3 0  9996
2 67366  97.8023 185.8289 0010532  76.3397 283.8992 14.88425356 26179
LEMUR-2-SONNENBLUME     
1 67367U 26004E   26187.47834203  .00003099  00000+0  33971-3 0  9992
2 67367  97.7993 185.7134 0009745  82.4268 277.8056 14.88423791 26166
LEMUR-2-WOBLER          
1 67368U 26004F   26187.73789495  .00003601  00000+0  39153-3 0  9991
2 67368  97.8045 186.1106 0009922  73.5880 286.6427 14.88658210 26209
BLACKCAT                
1 67369U 26004G   26187.52491991  .00001667  00000+0  18870-3 0  9993
2 67369  97.7985 185.6413 0008896  82.8271 277.3957 14.87724140 26168
