OBJECT_NAME,OBJECT_ID,EPOCH,MEAN_MOTION,ECCENTRICITY,INCLINATION,RA_OF_ASC_NODE,ARG_OF_PERICENTER,MEAN_ANOMALY,EPHEMERIS_TYPE,CLASSIFICATION_TYPE,NORAD_CAT_ID,ELEMENT_SET_NO,REV_AT_EPOCH,BSTAR,MEAN_MOTION_DOT,MEAN_MOTION_DDOT
STARLINK-36339,2026-003G,2026-07-06T05:36:00.608832,15.27547640,.00019056,43.0035,277.5973,277.1840,82.8795,0,U,67340,999,2695,.12890334E-2,.35345E-3,0
STARLINK-36453,2026-003H,2026-07-06T10:12:55.415232,15.27562027,.0001388,43.0007,276.4589,270.7601,89.3092,0,U,67341,999,2698,.64355E-3,.17479E-3,0
STARLINK-36432,2026-003J,2026-07-05T22:42:20.773728,15.27573615,.0000857,42.9994,278.8747,344.1416,15.9409,0,U,67342,999,2691,.23278E-2,.64341E-3,0
STARLINK-36458,2026-003K,2026-07-06T05:21:12.238848,15.27529977,.00017378,43.0013,277.5145,253.7518,106.3142,0,U,67343,999,2695,.10351978E-2,.2829E-3,0
STARLINK-36422,2026-003L,2026-07-05T22:47:55.044960,15.27521283,.0000959,43.0003,278.9040,278.1286,81.9457,0,U,67344,999,2691,.11763E-2,.3219E-3,0
STARLINK-35676,2026-003M,2026-07-06T06:49:48.706464,15.27546431,.00012471,43.0021,277.1172,273.8143,86.2566,0,U,67345,999,2696,.11152532E-2,.30523E-3,0
STARLINK-36472,2026-003N,2026-07-06T07:37:55.572384,15.27560979,.00013351,43.0016,277.3764,263.6417,96.4282,0,U,67346,999,2695,.17394236E-2,.47886E-3,0
STARLINK-36420,2026-003P,2026-07-06T07:23:07.152288,15.27546702,.00015911,43.0034,277.2986,284.3207,75.7468,0,U,67347,999,2696,.1275941E-2,.3498E-3,0
STARLINK-36467,2026-003Q,2026-07-06T07:28:38.922240,15.27574305,.0002059,43.0050,277.3284,277.7394,82.3224,0,U,67348,999,2696,.12500993E-2,.34293E-3,0
STARLINK-36457,2026-003R,2026-07-06T07:06:25.694208,15.27618252,.00012392,43.0029,277.2072,266.8451,93.2259,0,U,67349,999,2696,.12634687E-2,.3471E-3,0
STARLINK-36475,2026-003S,2026-07-06T13:02:44.295072,15.27559080,.0001462,43.0001,275.6207,266.2710,93.7975,0,U,67350,999,2700,.60118E-3,.16307E-3,0
STARLINK-36478,2026-003T,2026-07-06T06:35:00.334752,15.27537799,.00020255,42.9999,277.0361,280.2551,79.8073,0,U,67351,999,2696,.90917012E-3,.24809E-3,0
STARLINK-36479,2026-003U,2026-07-05T22:34:58.118880,15.27557761,.0002028,42.9974,278.8341,290.5268,69.5365,0,U,67352,999,2691,.71463E-3,.19442E-3,0
STARLINK-36474,2026-003V,2026-07-06T06:20:25.048320,15.27540539,.00012271,42.9991,277.8306,270.4244,89.6467,0,U,67353,999,2695,.81720855E-3,.22267E-3,0
STARLINK-36448,2026-003W,2026-07-06T07:17:33.956736,15.27550973,.00015497,43.0032,277.2640,277.4301,82.6375,0,U,67354,999,2696,.12797495E-2,.3509E-3,0
STARLINK-36477,2026-003X,2026-07-06T17:13:58.039104,15.27562400,.0002641,43.0013,275.2189,298.5635,61.4951,0,U,67355,999,2702,.63553E-3,.17259E-3,0
STARLINK-36429,2026-003Y,2026-07-06T07:43:28.639200,15.27557676,.0001285,43.0022,277.4065,272.0855,87.9850,0,U,67356,999,2696,.15641531E-2,.43002E-3,0
STARLINK-36456,2026-003Z,2026-07-06T16:36:57.301632,15.27583806,.0000756,42.9990,275.0168,286.6392,73.4376,0,U,67357,999,2702,.12292E-2,.3372E-3,0
STARLINK-36466,2026-003AA,2026-07-06T06:40:33.195072,15.27540305,.00022727,42.9999,277.0631,265.4754,94.5838,0,U,67358,999,2696,.11123601E-2,.30438E-3,0
STARLINK-36499,2026-003AB,2026-07-06T06:22:15.984192,15.27542731,.00031571,43.0000,277.8418,136.0430,224.0673,0,U,67359,999,2695,.96877886E-3,.26464E-3,0
STARLINK-36469,2026-003AC,2026-07-06T06:16:41.358720,15.27567585,.0001353,43.0000,277.8108,266.7337,93.3360,0,U,67360,999,2695,.9254933E-3,.25283E-3,0
STARLINK-35306,2026-003AD,2026-07-06T07:02:45.838176,15.27551538,.00009704,43.0014,277.1824,245.1345,114.9405,0,U,67361,999,2696,.13901893E-2,.38158E-3,0
STARLINK-36428,2026-003AE,2026-07-06T06:59:03.636384,15.27549869,.00018275,43.0015,277.1619,270.6979,89.3663,0,U,67362,999,2696,.10946754E-2,.29956E-3,0
LEMUR-2 FIKRETDENGIZ,2026-004A,2026-07-05T22:59:45.997728,14.88472307,.0010567,97.8024,185.2292,81.5698,278.6716,0,U,67363,999,2607,.53037E-3,.4876E-4,0
TWILIGHT-1 OBJECT B,2026-004B,2026-07-06T17:32:13.914240,14.87773913,.0010157,97.8067,185.9957,70.0556,290.1754,0,U,67364,999,2619,.21511E-3,.191E-4,0
LEMUR-2-MARIO-SOUSA,2026-004C,2026-07-06T11:26:56.436576,14.88679800,.00102184,97.7998,185.7354,81.3584,278.8791,0,U,67365,999,2616,.47199034E-3,.4355E-4,0
LEMUR-2 CALLUM-K-J,2026-004D,2026-07-06T13:29:26.407680,14.88425356,.0010532,97.8023,185.8289,76.3397,283.8992,0,U,67366,999,2617,.40153E-3,.3673E-4,0
LEMUR-2-SONNENBLUME,2026-004E,2026-07-06T11:28:48.751392,14.88423791,.00097451,97.7993,185.7134,82.4268,277.8056,0,U,67367,999,2616,.33971274E-3,.3099E-4,0
LEMUR-2-WOBLER,2026-004F,2026-07-06T17:42:34.123680,14.88658210,.0009922,97.8045,186.1106,73.5880,286.6427,0,U,67368,999,2620,.39153E-3,.3601E-4,0
BLACKCAT,2026-004G,2026-07-06T12:35:53.080224,14.87724140,.0008896,97.7985,185.6413,82.8271,277.3957,0,U,67369,999,2616,.1887E-3,.1667E-4,0
